GLOBALSTAR M067         
1 32263U 07048A   25051.62178368 -.00000052  00000+0  33808-3 0  9991
2 32263  51.9754  17.0104 0001252  88.0022  83.9009 12.40666454795011
GLOBALSTAR M070         
1 32264U 07048B   25051.49124098 -.00000070  00000+0  19047-3 0  9997
2 32264  51.9745 124.0063 0000644 140.6926 232.6422 12.62312362798933
GLOBALSTAR M066         
1 32265U 07048C   25049.60502506 -.00000075  00000+0  16402-3 0  9999
2 32265  51.9697   8.9922 0000461  52.7740 118.3447 12.42170823800649
GLOBALSTAR M068         
1 32266U 07048D   25051.42994589 -.00000055  00000+0  27025-3 0  9990
2 32266  51.9891 298.1736 0000231 190.4472 340.4975 12.62815737802805
GLOBALSTAR M079         
1 37188U 10054A   25051.54887148 -.00000083  00000+0  11862-3 0  9997
2 37188  52.0034 134.8533 0000759  94.2393  11.9019 12.62271078661720
GLOBALSTAR M074         
1 37189U 10054B   25051.47580859 -.00000070  00000+0  18785-3 0  9996
2 37189  52.0011 134.4171 0000857 122.1104 251.0700 12.62266590662324
GLOBALSTAR M076         
1 37190U 10054C   25051.59820417 -.00000087  00000+0  96303-4 0  9999
2 37190  52.0025 134.2015 0001025 106.9710 344.9279 12.62277862662054
GLOBALSTAR M077         
1 37191U 10054D   25051.40975270 -.00000098  00000+0  30307-4 0  9992
2 37191  52.0067  91.6009 0000496 119.4782 253.5759 12.62271100662405
